[{"OBJECT_NAME":"GLOBALSTAR M095","OBJECT_ID":"2013-005F","EPOCH":"2026-03-09T18:33:27.234432","MEAN_MOTION":12.62276132,"ECCENTRICITY":0.00013142,"INCLINATION":52.0061,"RA_OF_ASC_NODE":223.8176,"ARG_OF_PERICENTER":95.9758,"MEAN_ANOMALY":264.1259,"EPHEMERIS_TYPE":0,"CLASSIFICATION_TYPE":"U","NORAD_CAT_ID":39077,"ELEMENT_SET_NO":999,"REV_AT_EPOCH":60331,"BSTAR":3.5730155e-5,"MEAN_MOTION_DOT":-9.7e-7,"MEAN_MOTION_DDOT":0},{"OBJECT_NAME":"THORAD DELTA 1 DEB","OBJECT_ID":"1974-089Y","EPOCH":"2026-03-09T18:56:25.354176","MEAN_MOTION":12.61667871,"ECCENTRICITY":0.00621319,"INCLINATION":101.4138,"RA_OF_ASC_NODE":140.9599,"ARG_OF_PERICENTER":55.0125,"MEAN_ANOMALY":61.5875,"EPHEMERIS_TYPE":0,"CLASSIFICATION_TYPE":"U","NORAD_CAT_ID":8158,"ELEMENT_SET_NO":999,"REV_AT_EPOCH":36119,"BSTAR":0.0003901772,"MEAN_MOTION_DOT":2.6e-7,"MEAN_MOTION_DDOT":0}]
